IRIDIUM 166             
1 43570U 18061B   25103.80002925 -.00000039  00000+0 -20828-4 0  9999
2 43570  86.3976 236.1183 0001912 103.1828 256.9581 14.34217384351855
IRIDIUM 158             
1 43571U 18061C   25103.90784985  .00000389  00000+0  13171-3 0  9992
2 43571  86.3974 236.0823 0001953  95.3377 264.8042 14.34218861351839
IRIDIUM 165             
1 43572U 18061D   25103.65414832  .00000367  00000+0  12399-3 0  9993
2 43572  86.3976 236.2266 0002273 101.4204 258.7248 14.34217216351821
IRIDIUM 155             
1 43573U 18061E   25103.82539884  .00000044  00000+0  84986-5 0  9993
2 43573  86.3975 236.0456 0001878  95.7413 264.3997 14.34217789351815
IRIDIUM 154             
1 43574U 18061F   25104.08544557  .00000199  00000+0  63994-4 0  9992
2 43574  86.3976 236.0490 0002214  95.5249 264.6200 14.34218200351904
IRIDIUM 163             
1 43575U 18061G   25103.64780257  .00000248  00000+0  81592-4 0  9992
2 43575  86.3975 236.1610 0002121  91.1755 268.9683 14.34220130351817
IRIDIUM 156             
1 43576U 18061H   25103.76197208  .00000631  00000+0  21817-3 0  9993
2 43576  86.3972 236.1200 0001811  99.9093 260.2307 14.34216703351826
IRIDIUM 164             
1 43577U 18061J   25103.60340923  .00000105  00000+0  30532-4 0  9992
2 43577  86.3973 236.2197 0002256 101.6122 258.5327 14.34217505351847
